{
  "type": "FeatureCollection",
  "features": [
    {
      "type": "Feature",
      "properties": {
        "norad_id": 66905,
        "name": "STARLINK-36075",
        "group": "last-30-days",
        "lat": 44.34583117299227,
        "lon": 78.62498215884118,
        "alt_km": 340.39448501108836,
        "timestamp": "2025-12-21T03:56:49.617188+00:00",
        "meta_object_name": "STARLINK-36075",
        "meta_object_id": "2025-283AD",
        "meta_epoch": "2025-12-20T20:00:01.999008",
        "meta_mean_motion": 15.74202285,
        "meta_eccentricity": 0.0001134,
        "meta_inclination": 53.1575,
        "meta_ra_of_asc_node": 33.141,
        "meta_arg_of_pericenter": 80.7873,
        "meta_mean_anomaly": 262.6588,
        "meta_ephemeris_type": 0,
        "meta_classification_type": "U",
        "meta_norad_cat_id": 66905,
        "meta_element_set_no": 999,
        "meta_rev_at_epoch": 373,
        "meta_bstar": -0.00042349,
        "meta_mean_motion_dot": -0.0006223,
        "meta_mean_motion_ddot": 0,
        "tle_line1": "1 66905U 25283AD  25354.83335647 -.00062230  00000+0 -42349-3 0  9993",
        "tle_line2": "2 66905  53.1575  33.1410 0001134  80.7873 262.6588 15.74202285  3734"
      },
      "geometry": {
        "type": "Point",
        "coordinates": [
          78.62498215884118,
          44.34583117299227
        ]
      }
    },
    {
      "type": "Feature",
      "properties": {
        "norad_id": 66906,
        "name": "1998-067XS",
        "group": "last-30-days",
        "lat": -27.723546453906543,
        "lon": 76.01634507914177,
        "alt_km": 417.1142183200891,
        "timestamp": "2025-12-21T03:56:49.617197+00:00",
        "meta_object_name": "1998-067XS",
        "meta_object_id": "1998-067XS",
        "meta_epoch": "2025-12-20T11:05:35.991168",
        "meta_mean_motion": 15.50962254,
        "meta_eccentricity": 0.00030029,
        "meta_inclination": 51.6311,
        "meta_ra_of_asc_node": 104.1082,
        "meta_arg_of_pericenter": 237.5,
        "meta_mean_anomaly": 122.5699,
        "meta_ephemeris_type": 0,
        "meta_classification_type": "U",
        "meta_norad_cat_id": 66906,
        "meta_element_set_no": 999,
        "meta_rev_at_epoch": 281,
        "meta_bstar": 0.00037246497,
        "meta_mean_motion_dot": 0.00021596,
        "meta_mean_motion_ddot": 0,
        "tle_line1": "1 66906U 98067XS  25354.46222212  .00021596  00000+0  37246-3 0  9994",
        "tle_line2": "2 66906  51.6311 104.1082 0003002 237.5000 122.5699 15.50962254  2818"
      },
      "geometry": {
        "type": "Point",
        "coordinates": [
          76.01634507914177,
          -27.723546453906543
        ]
      }
    },
    {
      "type": "Feature",
      "properties": {
        "norad_id": 66907,
        "name": "1998-067XT",
        "group": "last-30-days",
        "lat": 11.306393755454355,
        "lon": 109.62763661910428,
        "alt_km": 409.41352197525794,
        "timestamp": "2025-12-21T03:56:49.617206+00:00",
        "meta_object_name": "1998-067XT",
        "meta_object_id": "1998-067XT",
        "meta_epoch": "2025-12-19T11:42:50.767776",
        "meta_mean_motion": 15.52255247,
        "meta_eccentricity": 0.0003998,
        "meta_inclination": 51.6306,
        "meta_ra_of_asc_node": 108.8528,
        "meta_arg_of_pericenter": 265.7173,
        "meta_mean_anomaly": 94.336,
        "meta_ephemeris_type": 0,
        "meta_classification_type": "U",
        "meta_norad_cat_id": 66907,
        "meta_element_set_no": 999,
        "meta_rev_at_epoch": 266,
        "meta_bstar": 0.00077339,
        "meta_mean_motion_dot": 0.00047666,
        "meta_mean_motion_ddot": 0,
        "tle_line1": "1 66907U 98067XT  25353.48808759  .00047666  00000+0  77339-3 0  9995",
        "tle_line2": "2 66907  51.6306 108.8528 0003998 265.7173  94.3360 15.52255247  2660"
      },
      "geometry": {
        "type": "Point",
        "coordinates": [
          109.62763661910428,
          11.306393755454355
        ]
      }
    },
    {
      "type": "Feature",
      "properties": {
        "norad_id": 66908,
        "name": "1998-067XU",
        "group": "last-30-days",
        "lat": 14.944141176869815,
        "lon": 112.71452110739332,
        "alt_km": 408.65144718737974,
        "timestamp": "2025-12-21T03:56:49.617215+00:00",
        "meta_object_name": "1998-067XU",
        "meta_object_id": "1998-067XU",
        "meta_epoch": "2025-12-20T13:57:38.962944",
        "meta_mean_motion": 15.52465702,
        "meta_eccentricity": 0.0003923,
        "meta_inclination": 51.6312,
        "meta_ra_of_asc_node": 103.4063,
        "meta_arg_of_pericenter": 272.2862,
        "meta_mean_anomaly": 87.7679,
        "meta_ephemeris_type": 0,
        "meta_classification_type": "U",
        "meta_norad_cat_id": 66908,
        "meta_element_set_no": 999,
        "meta_rev_at_epoch": 283,
        "meta_bstar": 0.00073918,
        "meta_mean_motion_dot": 0.00045874,
        "meta_mean_motion_ddot": 0,
        "tle_line1": "1 66908U 98067XU  25354.58170096  .00045874  00000+0  73918-3 0  9992",
        "tle_line2": "2 66908  51.6312 103.4063 0003923 272.2862  87.7679 15.52465702  2836"
      },
      "geometry": {
        "type": "Point",
        "coordinates": [
          112.71452110739332,
          14.944141176869815
        ]
      }
    },
    {
      "type": "Feature",
      "properties": {
        "norad_id": 66909,
        "name": "SILVERSAT",
        "group": "last-30-days",
        "lat": 19.56937451338013,
        "lon": 116.85020547630296,
        "alt_km": 407.6996011305746,
        "timestamp": "2025-12-21T03:56:49.617225+00:00",
        "meta_object_name": "SILVERSAT",
        "meta_object_id": "1998-067XV",
        "meta_epoch": "2025-12-19T13:13:09.424128",
        "meta_mean_motion": 15.5251652,
        "meta_eccentricity": 0.0003839,
        "meta_inclination": 51.6306,
        "meta_ra_of_asc_node": 108.5226,
        "meta_arg_of_pericenter": 268.696,
        "meta_mean_anomaly": 91.359,
        "meta_ephemeris_type": 0,
        "meta_classification_type": "U",
        "meta_norad_cat_id": 66909,
        "meta_element_set_no": 999,
        "meta_rev_at_epoch": 267,
        "meta_bstar": 0.00079912,
        "meta_mean_motion_dot": 0.00049748,
        "meta_mean_motion_ddot": 0,
        "tle_line1": "1 66909U 98067XV  25353.55080352  .00049748  00000+0  79912-3 0  9998",
        "tle_line2": "2 66909  51.6306 108.5226 0003839 268.6960  91.3590 15.52516520  2671"
      },
      "geometry": {
        "type": "Point",
        "coordinates": [
          116.85020547630296,
          19.56937451338013
        ]
      }
    },
    {
      "type": "Feature",
      "properties": {
        "norad_id": 66910,
        "name": "1998-067XW",
        "group": "last-30-days",
        "lat": 26.94127167575111,
        "lon": 124.21828493652205,
        "alt_km": 407.845900809265,
        "timestamp": "2025-12-21T03:56:49.617237+00:00",
        "meta_object_name": "1998-067XW",
        "meta_object_id": "1998-067XW",
        "meta_epoch": "2025-12-20T20:04:19.500384",
        "meta_mean_motion": 15.52648438,
        "meta_eccentricity": 0.0004199,
        "meta_inclination": 51.6307,
        "meta_ra_of_asc_node": 102.1064,
        "meta_arg_of_pericenter": 252.0731,
        "meta_mean_anomaly": 107.9801,
        "meta_ephemeris_type": 0,
        "meta_classification_type": "U",
        "meta_norad_cat_id": 66910,
        "meta_element_set_no": 999,
        "meta_rev_at_epoch": 287,
        "meta_bstar": 0.00071944,
        "meta_mean_motion_dot": 0.0004493,
        "meta_mean_motion_ddot": 0,
        "tle_line1": "1 66910U 98067XW  25354.83633681  .00044930  00000+0  71944-3 0  9996",
        "tle_line2": "2 66910  51.6307 102.1064 0004199 252.0731 107.9801 15.52648438  2872"
      },
      "geometry": {
        "type": "Point",
        "coordinates": [
          124.21828493652205,
          26.94127167575111
        ]
      }
    },
    {
      "type": "Feature",
      "properties": {
        "norad_id": 66911,
        "name": "1998-067XX",
        "group": "last-30-days",
        "lat": 36.9444575443252,
        "lon": 137.01228424010574,
        "alt_km": 405.0099045521556,
        "timestamp": "2025-12-21T03:56:49.617246+00:00",
        "meta_object_name": "1998-067XX",
        "meta_object_id": "1998-067XX",
        "meta_epoch": "2025-12-20T15:22:41.136096",
        "meta_mean_motion": 15.53054787,
        "meta_eccentricity": 0.0003876,
        "meta_inclination": 51.6313,
        "meta_ra_of_asc_node": 103.0498,
        "meta_arg_of_pericenter": 258.0568,
        "meta_mean_anomaly": 101.9988,
        "meta_ephemeris_type": 0,
        "meta_classification_type": "U",
        "meta_norad_cat_id": 66911,
        "meta_element_set_no": 999,
        "meta_rev_at_epoch": 283,
        "meta_bstar": 0.00081113,
        "meta_mean_motion_dot": 0.00051512,
        "meta_mean_motion_ddot": 0,
        "tle_line1": "1 66911U 98067XX  25354.64075389  .00051512  00000+0  81113-3 0  9994",
        "tle_line2": "2 66911  51.6313 103.0498 0003876 258.0568 101.9988 15.53054787  2831"
      },
      "geometry": {
        "type": "Point",
        "coordinates": [
          137.01228424010574,
          36.9444575443252
        ]
      }
    }
  ]
}